{
  "type": "FeatureCollection",
  "features": [
    {
      "type": "Feature",
      "properties": {
        "norad_id": 31064,
        "name": "FENGYUN 1C DEB",
        "group": "fengyun-1c-debris",
        "lat": 20.606882422628424,
        "lon": -39.02453452827466,
        "alt_km": 644.3645830055248,
        "timestamp": "2025-12-07T09:35:10.070709+00:00",
        "meta_object_name": "FENGYUN 1C DEB",
        "meta_object_id": "1999-025BFJ",
        "meta_epoch": "2025-12-06T17:28:03.669600",
        "meta_mean_motion": 14.22114069,
        "meta_eccentricity": 0.02419183,
        "meta_inclination": 98.5733,
        "meta_ra_of_asc_node": 323.5736,
        "meta_arg_of_pericenter": 19.0604,
        "meta_mean_anomaly": 165.3233,
        "meta_ephemeris_type": 0,
        "meta_classification_type": "U",
        "meta_norad_cat_id": 31064,
        "meta_element_set_no": 999,
        "meta_rev_at_epoch": 97169,
        "meta_bstar": 0.00068715942,
        "meta_mean_motion_dot": 2.004e-05,
        "meta_mean_motion_ddot": 0,
        "tle_line1": "1 31064U 99025BFJ 25340.72782025  .00002004  00000+0  68716-3 0  9992",
        "tle_line2": "2 31064  98.5733 323.5736 0241918  19.0604 165.3233 14.22114069971690"
      },
      "geometry": {
        "type": "Point",
        "coordinates": [
          -39.02453452827466,
          20.606882422628424
        ]
      }
    },
    {
      "type": "Feature",
      "properties": {
        "norad_id": 31065,
        "name": "FENGYUN 1C DEB",
        "group": "fengyun-1c-debris",
        "lat": -15.147715487199733,
        "lon": 178.35914604417783,
        "alt_km": 824.2489441580447,
        "timestamp": "2025-12-07T09:35:10.070719+00:00",
        "meta_object_name": "FENGYUN 1C DEB",
        "meta_object_id": "1999-025BFK",
        "meta_epoch": "2025-12-06T07:27:19.187136",
        "meta_mean_motion": 14.28133562,
        "meta_eccentricity": 0.003548,
        "meta_inclination": 98.4659,
        "meta_ra_of_asc_node": 359.6143,
        "meta_arg_of_pericenter": 50.1744,
        "meta_mean_anomaly": 310.2552,
        "meta_ephemeris_type": 0,
        "meta_classification_type": "U",
        "meta_norad_cat_id": 31065,
        "meta_element_set_no": 999,
        "meta_rev_at_epoch": 64486,
        "meta_bstar": 0.0016485265,
        "meta_mean_motion_dot": 4.087e-05,
        "meta_mean_motion_ddot": 0,
        "tle_line1": "1 31065U 99025BFK 25340.31063874  .00004087  00000+0  16485-2 0  9990",
        "tle_line2": "2 31065  98.4659 359.6143 0035480  50.1744 310.2552 14.28133562644861"
      },
      "geometry": {
        "type": "Point",
        "coordinates": [
          178.35914604417783,
          -15.147715487199733
        ]
      }
    },
    {
      "type": "Feature",
      "properties": {
        "norad_id": 31068,
        "name": "FENGYUN 1C DEB",
        "group": "fengyun-1c-debris",
        "lat": -59.528142536770595,
        "lon": 128.83826505932788,
        "alt_km": 903.0814383097995,
        "timestamp": "2025-12-07T09:35:10.070729+00:00",
        "meta_object_name": "FENGYUN 1C DEB",
        "meta_object_id": "1999-025BFN",
        "meta_epoch": "2025-12-05T17:16:08.261184",
        "meta_mean_motion": 14.09184379,
        "meta_eccentricity": 0.01654718,
        "meta_inclination": 98.6281,
        "meta_ra_of_asc_node": 322.1831,
        "meta_arg_of_pericenter": 138.0623,
        "meta_mean_anomaly": 223.3359,
        "meta_ephemeris_type": 0,
        "meta_classification_type": "U",
        "meta_norad_cat_id": 31068,
        "meta_element_set_no": 999,
        "meta_rev_at_epoch": 96256,
        "meta_bstar": 0.00021075295,
        "meta_mean_motion_dot": 3.75e-06,
        "meta_mean_motion_ddot": 0,
        "tle_line1": "1 31068U 99025BFN 25339.71954006  .00000375  00000+0  21075-3 0  9999",
        "tle_line2": "2 31068  98.6281 322.1831 0165471 138.0623 223.3359 14.09184379962562"
      },
      "geometry": {
        "type": "Point",
        "coordinates": [
          128.83826505932788,
          -59.528142536770595
        ]
      }
    },
    {
      "type": "Feature",
      "properties": {
        "norad_id": 31069,
        "name": "FENGYUN 1C DEB",
        "group": "fengyun-1c-debris",
        "lat": 30.302386231613053,
        "lon": 135.81907450819233,
        "alt_km": 666.4271396593495,
        "timestamp": "2025-12-07T09:35:10.070739+00:00",
        "meta_object_name": "FENGYUN 1C DEB",
        "meta_object_id": "1999-025BFP",
        "meta_epoch": "2025-12-05T06:21:15.040224",
        "meta_mean_motion": 14.57023128,
        "meta_eccentricity": 0.01047413,
        "meta_inclination": 99.0992,
        "meta_ra_of_asc_node": 138.8633,
        "meta_arg_of_pericenter": 99.9446,
        "meta_mean_anomaly": 261.359,
        "meta_ephemeris_type": 0,
        "meta_classification_type": "U",
        "meta_norad_cat_id": 31069,
        "meta_element_set_no": 999,
        "meta_rev_at_epoch": 98577,
        "meta_bstar": 0.001508615,
        "meta_mean_motion_dot": 7.262e-05,
        "meta_mean_motion_ddot": 0,
        "tle_line1": "1 31069U 99025BFP 25339.26475741  .00007262  00000+0  15086-2 0  9990",
        "tle_line2": "2 31069  99.0992 138.8633 0104741  99.9446 261.3590 14.57023128985774"
      },
      "geometry": {
        "type": "Point",
        "coordinates": [
          135.81907450819233,
          30.302386231613053
        ]
      }
    },
    {
      "type": "Feature",
      "properties": {
        "norad_id": 31071,
        "name": "FENGYUN 1C DEB",
        "group": "fengyun-1c-debris",
        "lat": -33.57023504184097,
        "lon": -127.33460491506663,
        "alt_km": 719.6041139690215,
        "timestamp": "2025-12-07T09:35:10.070749+00:00",
        "meta_object_name": "FENGYUN 1C DEB",
        "meta_object_id": "1999-025BFR",
        "meta_epoch": "2025-11-28T11:19:27.812352",
        "meta_mean_motion": 14.52441146,
        "meta_eccentricity": 0.00557097,
        "meta_inclination": 99.0422,
        "meta_ra_of_asc_node": 49.1199,
        "meta_arg_of_pericenter": 325.3377,
        "meta_mean_anomaly": 34.419,
        "meta_ephemeris_type": 0,
        "meta_classification_type": "U",
        "meta_norad_cat_id": 31071,
        "meta_element_set_no": 999,
        "meta_rev_at_epoch": 65287,
        "meta_bstar": 0.0010703966,
        "meta_mean_motion_dot": 4.402e-05,
        "meta_mean_motion_ddot": 0,
        "tle_line1": "1 31071U 99025BFR 25332.47184968  .00004402  00000+0  10704-2 0  9992",
        "tle_line2": "2 31071  99.0422  49.1199 0055709 325.3377  34.4190 14.52441146652870"
      },
      "geometry": {
        "type": "Point",
        "coordinates": [
          -127.33460491506663,
          -33.57023504184097
        ]
      }
    },
    {
      "type": "Feature",
      "properties": {
        "norad_id": 31072,
        "name": "FENGYUN 1C DEB",
        "group": "fengyun-1c-debris",
        "lat": -58.39486189794731,
        "lon": 150.9387955847738,
        "alt_km": 902.29378047302,
        "timestamp": "2025-12-07T09:35:10.070759+00:00",
        "meta_object_name": "FENGYUN 1C DEB",
        "meta_object_id": "1999-025BFS",
        "meta_epoch": "2025-12-05T22:47:33.054432",
        "meta_mean_motion": 14.25450198,
        "meta_eccentricity": 0.02105215,
        "meta_inclination": 99.3326,
        "meta_ra_of_asc_node": 344.8966,
        "meta_arg_of_pericenter": 117.0638,
        "meta_mean_anomaly": 245.2192,
        "meta_ephemeris_type": 0,
        "meta_classification_type": "U",
        "meta_norad_cat_id": 31072,
        "meta_element_set_no": 999,
        "meta_rev_at_epoch": 96546,
        "meta_bstar": 0.00090205262,
        "meta_mean_motion_dot": 2.635e-05,
        "meta_mean_motion_ddot": 0,
        "tle_line1": "1 31072U 99025BFS 25339.94968813  .00002635  00000+0  90205-3 0  9992",
        "tle_line2": "2 31072  99.3326 344.8966 0210521 117.0638 245.2192 14.25450198965468"
      },
      "geometry": {
        "type": "Point",
        "coordinates": [
          150.9387955847738,
          -58.39486189794731
        ]
      }
    },
    {
      "type": "Feature",
      "properties": {
        "norad_id": 31073,
        "name": "FENGYUN 1C DEB",
        "group": "fengyun-1c-debris",
        "lat": -63.42844638506918,
        "lon": -8.129203541099784,
        "alt_km": 797.8484826802642,
        "timestamp": "2025-12-07T09:35:10.070770+00:00",
        "meta_object_name": "FENGYUN 1C DEB",
        "meta_object_id": "1999-025BFT",
        "meta_epoch": "2025-12-03T01:37:19.680960",
        "meta_mean_motion": 14.24707889,
        "meta_eccentricity": 0.00458738,
        "meta_inclination": 99.2206,
        "meta_ra_of_asc_node": 186.2773,
        "meta_arg_of_pericenter": 313.0184,
        "meta_mean_anomaly": 46.7154,
        "meta_ephemeris_type": 0,
        "meta_classification_type": "U",
        "meta_norad_cat_id": 31073,
        "meta_element_set_no": 999,
        "meta_rev_at_epoch": 96945,
        "meta_bstar": 0.0015631033,
        "meta_mean_motion_dot": 3.631e-05,
        "meta_mean_motion_ddot": 0,
        "tle_line1": "1 31073U 99025BFT 25337.06758890  .00003631  00000+0  15631-2 0  9992",
        "tle_line2": "2 31073  99.2206 186.2773 0045873 313.0184  46.7154 14.24707889969455"
      },
      "geometry": {
        "type": "Point",
        "coordinates": [
          -8.129203541099784,
          -63.42844638506918
        ]
      }
    }
  ]
}